     2.100          NAVIGATION                              RINEX VERSION / TYPE
fic2rin                                 01/16/2017 00:04:39 PGM / RUN BY / DATE
                                                            END OF HEADER
23 17  1 15  2  0  0.0 -.202696770430D-03 -.102318153949D-11  .000000000000D+00
     .370000000000D+02  .170937500000D+02  .541165398854D-08 -.321450875068D+00
     .104866921902D-05  .111828921363D-01  .485777854919D-05  .515354427528D+04
     .720000000000D+04  .521540641785D-07  .194857650409D+01  .156462192535D-06
     .944443479016D+00  .276937500000D+03 -.251531507441D+01 -.868107588737D-08
     .156077929844D-09  .100000000000D+01  .193200000000D+04  .000000000000D+00
     .240000000000D+01  .000000000000D+00 -.200234353542D-07  .370000000000D+02
     .600000000000D+01  .400000000000D+01
28 17  1 15  2  0  0.0  .582142733037D-03  .284217094304D-11  .000000000000D+00
     .100000000000D+02  .977500000000D+02  .380694428880D-08  .174488912854D+01
     .478886067867D-05  .200794843258D-01  .897049903870D-05  .515364158249D+04
     .720000000000D+04  .173225998878D-06 -.215488165451D+01 -.478699803352D-06
     .989036496083D+00  .217906250000D+03 -.158175735900D+01 -.760638826517D-08
     .245367363393D-09  .100000000000D+01  .193200000000D+04  .000000000000D+00
     .240000000000D+01  .000000000000D+00 -.111758708954D-07  .100000000000D+02
     .600000000000D+01  .400000000000D+01
29 17  1 15  2  0  0.0  .633046030998D-03 -.216004991671D-11  .000000000000D+00
     .108000000000D+03 -.221875000000D+01  .444625663301D-08 -.311570753679D+01
    -.203028321266D-06  .595927820541D-03  .124610960484D-05  .515368572044D+04
     .720000000000D+04 -.372529029846D-07 -.113022459245D+01 -.447034835815D-07
     .979627634589D+00  .364187500000D+03 -.211803658221D+00 -.835034782550D-08
    -.367872466222D-10  .100000000000D+01  .193200000000D+04  .000000000000D+00
     .240000000000D+01  .000000000000D+00 -.102445483208D-07  .108000000000D+03
     .600000000000D+01  .400000000000D+01
31 17  1 15  2  0  0.0  .225037802011D-03 -.227373675443D-11  .000000000000D+00
     .750000000000D+02 -.103437500000D+02  .437446792843D-08 -.207145741101D+01
    -.633299350739D-06  .854805705603D-02  .109132379293D-04  .515363421059D+04
     .720000000000D+04 -.160187482834D-06  .303429906859D+01 -.134110450745D-06
     .968894053961D+00  .177062500000D+03 -.307209913235D+00 -.786389899153D-08
    -.529307762079D-09  .100000000000D+01  .193200000000D+04  .000000000000D+00
     .240000000000D+01  .000000000000D+00 -.135041773319D-07  .750000000000D+02
     .600000000000D+01  .400000000000D+01
26 17  1 15  1 59 44.0 -.517320819199D-03 -.170530256582D-11  .000000000000D+00
     .310000000000D+02  .122562500000D+03  .445947146917D-08  .287810243629D+01
     .638514757156D-05  .156031444203D-02  .102184712887D-04  .515364695168D+04
     .718400000000D+04 -.391155481339D-07 -.224517305930D+01  .000000000000D+00
     .959728692255D+00  .181093750000D+03 -.143912989022D+00 -.800533345427D-08
     .224295057075D-09  .100000000000D+01  .193200000000D+04  .000000000000D+00
     .240000000000D+01  .000000000000D+00  .698491930962D-08  .310000000000D+02
     .360000000000D+02  .400000000000D+01
 1 17  1 15  2  0  0.0  .468515790999D-04  .113686837722D-11  .000000000000D+00
     .400000000000D+02 -.125625000000D+03  .423231915022D-08 -.125173155450D+01
    -.653229653835D-05  .614174013026D-02  .815652310848D-05  .515370046806D+04
     .720000000000D+04  .227242708206D-06 -.133800575114D+00 -.102445483208D-06
     .966715033093D+00  .226531250000D+03  .549724297629D+00 -.798818988303D-08
    -.355729103259D-09  .100000000000D+01  .193200000000D+04  .000000000000D+00
     .240000000000D+01  .000000000000D+00  .512227416039D-08  .400000000000D+02
     .360000000000D+02  .400000000000D+01
 3 17  1 15  2  0  0.0 -.105869956315D-03 -.909494701773D-12  .000000000000D+00
     .470000000000D+02  .937500000000D-01  .432982321166D-08 -.233658629551D+01
     .130385160446D-06  .486047472805D-03  .111199915409D-04  .515382271576D+04
     .720000000000D+04 -.223517417908D-07  .907796649671D+00  .204890966415D-07
     .959524385505D+00  .165000000000D+03  .597062844738D+00 -.782104006343D-08
     .504663878419D-09  .100000000000D+01  .193200000000D+04  .000000000000D+00
     .240000000000D+01  .000000000000D+00  .186264514923D-08  .470000000000D+02
     .360000000000D+02  .400000000000D+01
 6 17  1 15  2  0  0.0  .299381092191D-03  .500222085975D-11  .000000000000D+00
     .240000000000D+02 -.113281250000D+03  .427767818247D-08 -.900275097329D+00
    -.588595867157D-05  .535749131814D-03  .805407762527D-05  .515360567665D+04
     .720000000000D+04  .130385160446D-07 -.142186540880D+00 -.558793544769D-08
     .966506807185D+00  .228593750000D+03 -.140833003284D+01 -.804319217410D-08
    -.272511351192D-09  .100000000000D+01  .193200000000D+04  .000000000000D+00
     .240000000000D+01  .000000000000D+00  .419095158577D-08  .240000000000D+02
     .360000000000D+02  .400000000000D+01
 8 17  1 15  2  0  0.0 -.460306182504D-04 -.125055521494D-11  .000000000000D+00
     .930000000000D+02  .159375000000D+02  .481162899509D-08  .159264450653D+01
     .799074769020D-06  .238803785760D-02  .109523534775D-05  .515357112312D+04
     .720000000000D+04 -.298023223877D-07 -.119599206134D+01 -.372529029846D-07
     .965353100249D+00  .355500000000D+03 -.924791908815D+00 -.854214152877D-08
    -.242867259253D-10  .100000000000D+01  .193200000000D+04  .000000000000D+00
     .240000000000D+01  .000000000000D+00  .465661287308D-08  .930000000000D+02
     .360000000000D+02  .400000000000D+01
 9 17  1 15  2  0  0.0  .283718109131D-03  .750333128963D-11  .000000000000D+00
     .890000000000D+02  .174687500000D+02  .508164024214D-08  .110303077839D+01
     .920146703720D-06  .885044806637D-03  .481307506561D-05  .515370049286D+04
     .720000000000D+04 -.298023223877D-07  .194552079738D+01 -.372529029846D-08
     .953550593175D+00  .280812500000D+03  .172941820224D+01 -.837642034010D-08
     .168578450541D-09  .100000000000D+01  .193200000000D+04  .000000000000D+00
     .240000000000D+01  .000000000000D+00  .139698386192D-08  .890000000000D+02
     .360000000000D+02  .400000000000D+01
10 17  1 15  2  0  0.0 -.113233458251D-03  .193267624127D-11  .000000000000D+00
     .320000000000D+02  .656250000000D+01  .435303846438D-08  .298400365244D+01
     .448897480965D-06  .210226909257D-02  .121947377920D-04  .515367920494D+04
     .720000000000D+04 -.130385160446D-07  .903990578630D+00  .372529029846D-08
     .959721088007D+00  .142500000000D+03 -.293283521359D+01 -.783139763772D-08
     .588238788221D-09  .100000000000D+01  .193200000000D+04  .000000000000D+00
     .240000000000D+01  .000000000000D+00  .232830643654D-08  .320000000000D+02
     .360000000000D+02  .400000000000D+01
24 17  1 15  2  0  0.0 -.290512107313D-04 -.568434188608D-12  .000000000000D+00
     .700000000000D+01 -.168437500000D+02  .491056168746D-08 -.100039178325D+01
    -.935047864914D-06  .537453615107D-02  .960007309914D-05  .515370416832D+04
     .720000000000D+04  .126659870148D-06  .297281374231D+01  .242143869400D-07
     .947131206239D+00  .186281250000D+03  .434917643746D+00 -.814212486647D-08
    -.496449250533D-09  .100000000000D+01  .193200000000D+04  .000000000000D+00
     .240000000000D+01  .000000000000D+00  .232830643654D-08  .700000000000D+01
     .360000000000D+02  .400000000000D+01
25 17  1 15  2  0  0.0 -.318058766425D-03 -.670752342558D-11  .000000000000D+00
     .320000000000D+02  .125156250000D+03  .392552065655D-08 -.300946702898D+01
     .631995499134D-05  .596012489405D-02  .100396573544D-04  .515365293694D+04
     .720000000000D+04 -.111758708954D-07 -.223209611652D+01 -.968575477600D-07
     .977872524956D+00  .193906250000D+03  .749632524221D+00 -.772853621027D-08
     .230009580822D-09  .100000000000D+01  .193200000000D+04  .000000000000D+00
     .240000000000D+01  .000000000000D+00  .558793544769D-08  .320000000000D+02
     .360000000000D+02  .400000000000D+01
27 17  1 15  2  0  0.0  .194229651242D-03  .568434188608D-11  .000000000000D+00
     .710000000000D+02  .169687500000D+02  .468233789531D-08  .974140225948D+00
     .994652509689D-06  .418697530404D-02  .131689012051D-05  .515365765762D+04
     .720000000000D+04  .130385160446D-07 -.119146866159D+01  .186264514923D-07
     .973461013564D+00  .356968750000D+03  .280905281267D+00 -.854035574010D-08
    -.157149403046D-10  .100000000000D+01  .193200000000D+04  .000000000000D+00
     .240000000000D+01  .000000000000D+00  .186264514923D-08  .710000000000D+02
     .360000000000D+02  .400000000000D+01
30 17  1 15  2  0  0.0  .160302035511D-03  .341060513165D-12  .000000000000D+00
     .112000000000D+03 -.155312500000D+02  .476126975457D-08 -.187513271782D+01
    -.953674316406D-06  .238538556732D-02  .101998448372D-04  .515372717667D+04
     .720000000000D+04 -.242143869400D-07  .306475517972D+01 -.465661287308D-07
     .949880021996D+00  .180125000000D+03  .309620751612D+01 -.807390773924D-08
    -.444661379074D-09  .100000000000D+01  .193200000000D+04  .000000000000D+00
     .240000000000D+01  .000000000000D+00  .372529029846D-08  .112000000000D+03
     .360000000000D+02  .400000000000D+01
32 17  1 15  2  0  0.0 -.281900633126D-03 -.148929757415D-10  .000000000000D+00
     .950000000000D+02  .128125000000D+02  .507056835238D-08  .175041911541D+01
     .612810254097D-06  .660787103698D-03  .462681055069D-05  .515367427826D+04
     .720000000000D+04 -.130385160446D-07  .194805644403D+01  .149011611938D-07
     .958083348291D+00  .284406250000D+03 -.276698480684D+01 -.836106255753D-08
     .158578033983D-09  .100000000000D+01  .193200000000D+04  .000000000000D+00
     .340000000000D+01  .000000000000D+00  .465661287308D-09  .950000000000D+02
     .360000000000D+02  .400000000000D+01
